[{"OBJECT_NAME":"STARLINK-5255","OBJECT_ID":"2022-141BD","EPOCH":"2026-03-09T23:50:33.330048","MEAN_MOTION":15.08876434,"ECCENTRICITY":9.569e-5,"INCLINATION":53.2184,"RA_OF_ASC_NODE":327.8045,"ARG_OF_PERICENTER":73.9905,"MEAN_ANOMALY":286.1193,"EPHEMERIS_TYPE":0,"CLASSIFICATION_TYPE":"U","NORAD_CAT_ID":54208,"ELEMENT_SET_NO":999,"REV_AT_EPOCH":18639,"BSTAR":-0.00059452631,"MEAN_MOTION_DOT":-9.746e-5,"MEAN_MOTION_DDOT":0},{"OBJECT_NAME":"CZ-6A DEB","OBJECT_ID":"2022-151AEC","EPOCH":"2026-03-09T16:07:43.414464","MEAN_MOTION":15.01082395,"ECCENTRICITY":0.0040922,"INCLINATION":98.632,"RA_OF_ASC_NODE":144.2747,"ARG_OF_PERICENTER":190.1613,"MEAN_ANOMALY":169.8786,"EPHEMERIS_TYPE":0,"CLASSIFICATION_TYPE":"U","NORAD_CAT_ID":56604,"ELEMENT_SET_NO":999,"REV_AT_EPOCH":16341,"BSTAR":0.005850488,"MEAN_MOTION_DOT":0.00076879,"MEAN_MOTION_DDOT":0}]
